******** Week 218 almanac for PRN-18 ********
ID:                         18
Health:                     000
Eccentricity:               0.3312110901E-002
Time of Applicability(s):  405504.0000
Orbital Inclination(rad):   0.9737745994
Rate of Right Ascen(r/s):  -0.7897471819E-008
SQRT(A)  (m 1/2):           5153.625977
Right Ascen at Week(rad):   0.2018290655E+001
Argument of Perigee(rad):   3.123619687
Mean Anom(rad):             0.2064957227E+001
Af0(s):                    -0.3089904785E-003
Af1(s/s):                  -0.1455191523E-010
week:                        218

******** Week 218 almanac for PRN-19 ********
ID:                         19
Health:                     000
Eccentricity:               0.9475231171E-002
Time of Applicability(s):  405504.0000
Orbital Inclination(rad):   0.9729956248
Rate of Right Ascen(r/s):  -0.8091765626E-008
SQRT(A)  (m 1/2):           5153.577637
Right Ascen at Week(rad):   0.1058475955E+001
Argument of Perigee(rad):   2.324858364
Mean Anom(rad):            -0.8463184727E-001
Af0(s):                     0.3309249878E-003
Af1(s/s):                   0.3637978807E-011
week:                        218

******** Week 218 almanac for PRN-20 ********
ID:                         20
Health:                     000
Eccentricity:               0.4039287567E-002
Time of Applicability(s):  405504.0000
Orbital Inclination(rad):   0.9491530093
Rate of Right Ascen(r/s):  -0.7760323249E-008
SQRT(A)  (m 1/2):           5153.517090
Right Ascen at Week(rad):   0.2878312715E+001
Argument of Perigee(rad):  -2.880537286
Mean Anom(rad):             0.2711916620E+001
Af0(s):                     0.4281997681E-003
Af1(s/s):                  -0.3637978807E-011
week:                        218

******** Week 218 almanac for PRN-21 ********
ID:                         21
Health:                     000
Eccentricity:               0.2464675903E-001
Time of Applicability(s):  405504.0000
Orbital Inclination(rad):   0.9615926348
Rate of Right Ascen(r/s):  -0.8057478483E-008
SQRT(A)  (m 1/2):           5153.562012
Right Ascen at Week(rad):   0.1913362400E+001
Argument of Perigee(rad):  -0.748611087
Mean Anom(rad):            -0.2239402975E+001
Af0(s):                     0.1535415649E-003
Af1(s/s):                   0.0000000000E+000
week:                        218

******** Week 218 almanac for PRN-23 ********
ID:                         23
Health:                     000
Eccentricity:               0.3244876862E-002
Time of Applicability(s):  405504.0000
Orbital Inclination(rad):   0.9745176214
Rate of Right Ascen(r/s):  -0.7508884204E-008
SQRT(A)  (m 1/2):           5153.620117
Right Ascen at Week(rad):   0.3017897102E+001
Argument of Perigee(rad):  -3.103458475
Mean Anom(rad):             0.1020793058E+001
Af0(s):                     0.3337860107E-004
Af1(s/s):                   0.3637978807E-011
week:                        218

******** Week 218 almanac for PRN-24 ********
ID:                         24
Health:                     000
Eccentricity:               0.1394414902E-001
Time of Applicability(s):  405504.0000
Orbital Inclination(rad):   0.9335315722
Rate of Right Ascen(r/s):  -0.8114623721E-008
SQRT(A)  (m 1/2):           5153.583496
Right Ascen at Week(rad):  -0.1230656310E+001
Argument of Perigee(rad):   0.896869806
Mean Anom(rad):             0.2198049535E+001
Af0(s):                    -0.2260208130E-003
Af1(s/s):                  -0.1455191523E-010
week:                        218

******** Week 218 almanac for PRN-25 ********
ID:                         25
Health:                     000
Eccentricity:               0.1106595993E-001
Time of Applicability(s):  405504.0000
Orbital Inclination(rad):   0.9533235196
Rate of Right Ascen(r/s):  -0.7737465154E-008
SQRT(A)  (m 1/2):           5153.678711
Right Ascen at Week(rad):  -0.1075501794E+000
Argument of Perigee(rad):   1.052598067
Mean Anom(rad):             0.3347021743E+000
Af0(s):                     0.4501342773E-003
Af1(s/s):                   0.3637978807E-011
week:                        218

******** Week 218 almanac for PRN-26 ********
ID:                         26
Health:                     000
Eccentricity:               0.7918834686E-002
Time of Applicability(s):  405504.0000
Orbital Inclination(rad):   0.9340768544
Rate of Right Ascen(r/s):  -0.7920329914E-008
SQRT(A)  (m 1/2):           5153.655762
Right Ascen at Week(rad):  -0.1635468447E+000
Argument of Perigee(rad):   0.463989491
Mean Anom(rad):            -0.3713259656E+000
Af0(s):                     0.2393722534E-003
Af1(s/s):                   0.0000000000E+000
week:                        218

******** Week 218 almanac for PRN-27 ********
ID:                         27
Health:                     000
Eccentricity:               0.1155042648E-001
Time of Applicability(s):  405504.0000
Orbital Inclination(rad):   0.9673091101
Rate of Right Ascen(r/s):  -0.8126052768E-008
SQRT(A)  (m 1/2):           5153.618164
Right Ascen at Week(rad):   0.9480911321E+000
Argument of Perigee(rad):   0.742220874
Mean Anom(rad):            -0.2176610880E+001
Af0(s):                     0.1621246338E-004
Af1(s/s):                  -0.7275957614E-011
week:                        218

******** Week 218 almanac for PRN-28 ********
ID:                         28
Health:                     000
Eccentricity:               0.6585121155E-003
Time of Applicability(s):  405504.0000
Orbital Inclination(rad):   0.9611192579
Rate of Right Ascen(r/s):  -0.7748894201E-008
SQRT(A)  (m 1/2):           5153.637695
Right Ascen at Week(rad):  -0.1176750143E+001
Argument of Perigee(rad):   1.701303038
Mean Anom(rad):            -0.2827142321E+000
Af0(s):                     0.8296966553E-004
Af1(s/s):                   0.0000000000E+000
week:                        218

******** Week 218 almanac for PRN-29 ********
ID:                         29
Health:                     000
Eccentricity:               0.2596378326E-002
Time of Applicability(s):  405504.0000
Orbital Inclination(rad):   0.9762073971
Rate of Right Ascen(r/s):  -0.8068907531E-008
SQRT(A)  (m 1/2):           5153.707031
Right Ascen at Week(rad):   0.1028074224E+001
Argument of Perigee(rad):   2.427351200
Mean Anom(rad):            -0.2147939371E+001
Af0(s):                    -0.6027221680E-003
Af1(s/s):                   0.0000000000E+000
week:                        218

******** Week 218 almanac for PRN-30 ********
ID:                         30
Health:                     000
Eccentricity:               0.6557941437E-002
Time of Applicability(s):  405504.0000
Orbital Inclination(rad):   0.9351194820
Rate of Right Ascen(r/s):  -0.8011762293E-008
SQRT(A)  (m 1/2):           5153.519043
Right Ascen at Week(rad):  -0.1133797932E+001
Argument of Perigee(rad):  -2.572020269
Mean Anom(rad):             0.1147782025E+001
Af0(s):                    -0.5111694336E-003
Af1(s/s):                   0.3637978807E-011
week:                        218

******** Week 218 almanac for PRN-31 ********
ID:                         31
Health:                     000
Eccentricity:               0.1032686234E-001
Time of Applicability(s):  405504.0000
Orbital Inclination(rad):   0.9540785258
Rate of Right Ascen(r/s):  -0.7817468486E-008
SQRT(A)  (m 1/2):           5153.519043
Right Ascen at Week(rad):  -0.1119540824E+001
Argument of Perigee(rad):   0.543740762
Mean Anom(rad):             0.3268629932E+000
Af0(s):                    -0.2183914185E-003
Af1(s/s):                   0.0000000000E+000
week:                        218

******** Week 218 almanac for PRN-32 ********
ID:                         32
Health:                     000
Eccentricity:               0.6937503815E-002
Time of Applicability(s):  405504.0000
Orbital Inclination(rad):   0.9596451983
Rate of Right Ascen(r/s):  -0.7863184676E-008
SQRT(A)  (m 1/2):           5153.693848
Right Ascen at Week(rad):  -0.2198545757E+001
Argument of Perigee(rad):  -2.200335526
Mean Anom(rad):            -0.1568086019E+001
Af0(s):                    -0.5006790161E-003
Af1(s/s):                  -0.7275957614E-011
week:                        218

